0 FENGYUN 1C DEB
1 36731U 99025EBD 13284.53367904  .00002178  00000-0  94738-3 0  2074
2 36731 099.0925 030.6583 0052453 097.8304 263.0450 14.24418795248695
0 FENGYUN 1C DEB
1 36731U 99025EBD 13285.51705028  .00002199  00000-0  95575-3 0  2080
2 36731 099.0935 031.6785 0053789 095.7571 264.9790 14.24423927248833
0 FENGYUN 1C DEB
1 36731U 99025EBD 13290.08281793  .00002260  00000-0  98040-3 0  2096
2 36731 099.0944 036.4067 0054937 083.5948 277.1827 14.24446209249485
0 FENGYUN 1C DEB
1 36731U 99025EBD 13293.52464613  .00002479  00000-0  10736-2 0  2101
2 36731 099.0937 039.9706 0054291 072.0151 288.9626 14.24470824249978
0 FENGYUN 1C DEB
1 36731U 99025EBD 13296.05324521  .00002627  00000-0  11345-2 0  2118
2 36731 099.0934 042.5951 0056682 067.2853 293.5311 14.24488153250337
